start=new Date('2023-01-06T00:00:00.000Z').valueOf();
sats=[{"TLE_LINE2":"2 45418  52.9966 346.0093 0002264  61.2147 298.9072 15.14586289154489","INCLINATION":"52.9966","ARG_OF_PERICENTER":"61.2147","FILE":"3732963","TIME_SYSTEM":"UTC","OBJECT_ID":"2020-019BL","REV_AT_EPOCH":"15448","DECAY_DATE":null,"EPOCH":"2023-01-05T16:10:35.420448","MEAN_ELEMENT_THEORY":"SGP4","OBJECT_NAME":"STARLINK-1299","LAUNCH_DATE":"2020-03-18","RA_OF_ASC_NODE":"346.0093","SEMIMAJOR_AXIS":"6900.372","MEAN_ANOMALY":"298.9072","NORAD_CAT_ID":"45418","MEAN_MOTION_DOT":"0.00042719","SITE":"AFETR","MEAN_MOTION_DDOT":"0.0000000000000","TLE_LINE1":"1 45418U 20019BL  23005.67402107  .00042719  00000-0  22902-2 0  9991","EPHEMERIS_TYPE":"0","OBJECT_TYPE":"PAYLOAD","APOAPSIS":"523.799","MEAN_MOTION":"15.14586289","COUNTRY_CODE":"US","ECCENTRICITY":"0.00022640","PERIAPSIS":"520.675","PERIOD":"95.075","RCS_SIZE":"LARGE","CLASSIFICATION_TYPE":"U","BSTAR":"0.00229020000000","ELEMENT_SET_NO":"999","REF_FRAME":"TEME","CENTER_NAME":"EARTH","GP_ID":"222285261"},{"OBJECT_NAME":"STARLINK-1308","RA_OF_ASC_NODE":"330.9820","LAUNCH_DATE":"2020-03-18","SEMIMAJOR_AXIS":"6925.301","MEAN_ANOMALY":"303.2460","DECAY_DATE":null,"MEAN_ELEMENT_THEORY":"SGP4","EPOCH":"2023-01-05T09:00:57.454272","SITE":"AFETR","MEAN_MOTION_DDOT":"0.0000000000000","TLE_LINE1":"1 45419U 20019BM  23005.37566498  .00005062  00000-0  35830-3 0  9998","NORAD_CAT_ID":"45419","MEAN_MOTION_DOT":"0.00005062","TLE_LINE2":"2 45419  53.0534 330.9820 0001684  56.8690 303.2460 15.06415649154732","INCLINATION":"53.0534","ARG_OF_PERICENTER":"56.8690","FILE":"3732939","TIME_SYSTEM":"UTC","OBJECT_ID":"2020-019BM","REV_AT_EPOCH":"15473","RCS_SIZE":"LARGE","CLASSIFICATION_TYPE":"U","GP_ID":"222260557","ELEMENT_SET_NO":"999","BSTAR":"0.00035830000000","REF_FRAME":"TEME","CENTER_NAME":"EARTH","APOAPSIS":"548.332","MEAN_MOTION":"15.06415649","COUNTRY_CODE":"US","OBJECT_TYPE":"PAYLOAD","EPHEMERIS_TYPE":"0","PERIAPSIS":"545.999","PERIOD":"95.591","ECCENTRICITY":"0.00016840"},{"DECAY_DATE":null,"EPOCH":"2023-01-05T03:29:13.715232","MEAN_ELEMENT_THEORY":"SGP4","OBJECT_NAME":"STARLINK-1329","LAUNCH_DATE":"2020-04-22","RA_OF_ASC_NODE":"272.0266","SEMIMAJOR_AXIS":"6925.282","MEAN_ANOMALY":"299.2280","NORAD_CAT_ID":"45531","MEAN_MOTION_DOT":"0.00004668","SITE":"AFETR","MEAN_MOTION_DDOT":"0.0000000000000","TLE_LINE1":"1 45531U 20025A   23005.14529763  .00004668  00000-0  33186-3 0  9992","TLE_LINE2":"2 45531  53.0542 272.0266 0001667  60.8876 299.2280 15.06421877150323","INCLINATION":"53.0542","ARG_OF_PERICENTER":"60.8876","FILE":"3732939","TIME_SYSTEM":"UTC","OBJECT_ID":"2020-025A","REV_AT_EPOCH":"15032","RCS_SIZE":"LARGE","CLASSIFICATION_TYPE":"U","ELEMENT_SET_NO":"999","BSTAR":"0.00033186000000","REF_FRAME":"TEME","CENTER_NAME":"EARTH","GP_ID":"222259069","OBJECT_TYPE":"PAYLOAD","EPHEMERIS_TYPE":"0","APOAPSIS":"548.301","MEAN_MOTION":"15.06421877","COUNTRY_CODE":"US","ECCENTRICITY":"0.00016670","PERIAPSIS":"545.992","PERIOD":"95.591"},{"PERIAPSIS":"546.133","PERIOD":"95.592","ECCENTRICITY":"0.00015370","APOAPSIS":"548.262","MEAN_MOTION":"15.06405191","COUNTRY_CODE":"US","EPHEMERIS_TYPE":"0","OBJECT_TYPE":"PAYLOAD","GP_ID":"222285772","ELEMENT_SET_NO":"999","BSTAR":"0.00010624000000","REF_FRAME":"TEME","CENTER_NAME":"EARTH","RCS_SIZE":"LARGE","CLASSIFICATION_TYPE":"U","ARG_OF_PERICENTER":"114.4752","FILE":"3732963","TIME_SYSTEM":"UTC","OBJECT_ID":"2020-025B","REV_AT_EPOCH":"15041","TLE_LINE2":"2 45532  53.0518 269.2924 0001537 114.4752 245.6397 15.06405191150416","INCLINATION":"53.0518","SITE":"AFETR","MEAN_MOTION_DDOT":"0.0000000000000","TLE_LINE1":"1 45532U 20025B   23005.75346889  .00001301  00000-0  10624-3 0  9999","NORAD_CAT_ID":"45532","MEAN_MOTION_DOT":"0.00001301","OBJECT_NAME":"STARLINK-1338","RA_OF_ASC_NODE":"269.2924","LAUNCH_DATE":"2020-04-22","SEMIMAJOR_AXIS":"6925.333","MEAN_ANOMALY":"245.6397","DECAY_DATE":null,"MEAN_ELEMENT_THEORY":"SGP4","EPOCH":"2023-01-05T18:04:59.712096"},{"MEAN_ELEMENT_THEORY":"SGP4","EPOCH":"2023-01-05T16:45:23.207328","DECAY_DATE":null,"MEAN_ANOMALY":"302.1313","LAUNCH_DATE":"2020-04-22","RA_OF_ASC_NODE":"269.5341","SEMIMAJOR_AXIS":"6925.260","OBJECT_NAME":"STARLINK-1341","MEAN_MOTION_DOT":"0.00006725","NORAD_CAT_ID":"45534","TLE_LINE1":"1 45534U 20025D   23005.69818527  .00006725  00000-0  46960-3 0  9994","MEAN_MOTION_DDOT":"0.0000000000000","SITE":"AFETR","INCLINATION":"53.0549","TLE_LINE2":"2 45534  53.0549 269.5341 0001827  57.9854 302.1313 15.06429010150406","REV_AT_EPOCH":"15040","OBJECT_ID":"2020-025D","TIME_SYSTEM":"UTC","FILE":"3732963","ARG_OF_PERICENTER":"57.9854","CLASSIFICATION_TYPE":"U","RCS_SIZE":"LARGE","CENTER_NAME":"EARTH","REF_FRAME":"TEME","ELEMENT_SET_NO":"999","BSTAR":"0.00046960000000","GP_ID":"222286022","EPHEMERIS_TYPE":"0","OBJECT_TYPE":"PAYLOAD","COUNTRY_CODE":"US","MEAN_MOTION":"15.06429010","APOAPSIS":"548.390","ECCENTRICITY":"0.00018270","PERIOD":"95.590","PERIAPSIS":"545.859"},{"MEAN_ELEMENT_THEORY":"SGP4","EPOCH":"2023-01-05T10:49:46.345440","DECAY_DATE":null,"MEAN_ANOMALY":"279.6429","SEMIMAJOR_AXIS":"6925.260","LAUNCH_DATE":"2020-04-22","RA_OF_ASC_NODE":"270.6526","OBJECT_NAME":"STARLINK-1350","MEAN_MOTION_DOT":"0.00008134","NORAD_CAT_ID":"45535","TLE_LINE1":"1 45535U 20025E   23005.45123085  .00008134  00000-0  56387-3 0  9997","MEAN_MOTION_DDOT":"0.0000000000000","SITE":"AFETR","INCLINATION":"53.0551","TLE_LINE2":"2 45535  53.0551 270.6526 0001541  80.4734 279.6429 15.06428801150378","REV_AT_EPOCH":"15037","OBJECT_ID":"2020-025E","TIME_SYSTEM":"UTC","FILE":"3732939","ARG_OF_PERICENTER":"80.4734","CLASSIFICATION_TYPE":"U","RCS_SIZE":"LARGE","CENTER_NAME":"EARTH","REF_FRAME":"TEME","ELEMENT_SET_NO":"999","BSTAR":"0.00056387000000","GP_ID":"222259320","OBJECT_TYPE":"PAYLOAD","EPHEMERIS_TYPE":"0","COUNTRY_CODE":"US","MEAN_MOTION":"15.06428801","APOAPSIS":"548.192","ECCENTRICITY":"0.00015410","PERIOD":"95.590","PERIAPSIS":"546.058"},{"EPOCH":"2023-01-05T10:55:07.938336","MEAN_ELEMENT_THEORY":"SGP4","DECAY_DATE":null,"MEAN_ANOMALY":"245.4621","RA_OF_ASC_NODE":"270.6304","LAUNCH_DATE":"2020-04-22","SEMIMAJOR_AXIS":"6925.454","OBJECT_NAME":"STARLINK-1352","MEAN_MOTION_DOT":"-0.00005364","NORAD_CAT_ID":"45536","TLE_LINE1":"1 45536U 20025F   23005.45495299 -.00005364  00000-0 -34177-3 0  9994","MEAN_MOTION_DDOT":"0.0000000000000","SITE":"AFETR","INCLINATION":"53.0527","TLE_LINE2":"2 45536  53.0527 270.6304 0001357 114.6510 245.4621 15.06365597150369","REV_AT_EPOCH":"15036","OBJECT_ID":"2020-025F","TIME_SYSTEM":"UTC","ARG_OF_PERICENTER":"114.6510","FILE":"3732939","CLASSIFICATION_TYPE":"U","RCS_SIZE":"LARGE","CENTER_NAME":"EARTH","REF_FRAME":"TEME","ELEMENT_SET_NO":"999","BSTAR":"-0.00034177000000","GP_ID":"222259570","EPHEMERIS_TYPE":"0","OBJECT_TYPE":"PAYLOAD","COUNTRY_CODE":"US","MEAN_MOTION":"15.06365597","APOAPSIS":"548.259","ECCENTRICITY":"0.00013570","PERIOD":"95.594","PERIAPSIS":"546.379"},{"TLE_LINE2":"2 45537  52.9671 185.9672 0004410 190.6122 169.4792 15.47920171151523","INCLINATION":"52.9671","OBJECT_ID":"2020-025G","REV_AT_EPOCH":"15152","ARG_OF_PERICENTER":"190.6122","FILE":"3732963","TIME_SYSTEM":"UTC","DECAY_DATE":null,"MEAN_ELEMENT_THEORY":"SGP4","EPOCH":"2023-01-05T14:46:39.351072","MEAN_ANOMALY":"169.4792","OBJECT_NAME":"STARLINK-1353","LAUNCH_DATE":"2020-04-22","SEMIMAJOR_AXIS":"6800.948","RA_OF_ASC_NODE":"185.9672","MEAN_MOTION_DOT":"0.00128973","NORAD_CAT_ID":"45537","MEAN_MOTION_DDOT":"0.0000000000000","TLE_LINE1":"1 45537U 20025G   23005.61573323  .00128973  00000-0  24018-2 0  9990","SITE":"AFETR","EPHEMERIS_TYPE":"0","OBJECT_TYPE":"PAYLOAD","COUNTRY_CODE":"US","APOAPSIS":"425.812","MEAN_MOTION":"15.47920171","ECCENTRICITY":"0.00044100","PERIAPSIS":"419.814","PERIOD":"93.028","CLASSIFICATION_TYPE":"U","RCS_SIZE":"LARGE","REF_FRAME":"TEME","CENTER_NAME":"EARTH","BSTAR":"0.00240180000000","ELEMENT_SET_NO":"999","GP_ID":"222285273"},{"RCS_SIZE":"LARGE","CLASSIFICATION_TYPE":"U","GP_ID":"222260569","BSTAR":"0.00042605000000","ELEMENT_SET_NO":"999","REF_FRAME":"TEME","CENTER_NAME":"EARTH","APOAPSIS":"548.506","MEAN_MOTION":"15.06418514","COUNTRY_CODE":"US","EPHEMERIS_TYPE":"0","OBJECT_TYPE":"PAYLOAD","PERIAPSIS":"545.808","PERIOD":"95.591","ECCENTRICITY":"0.00019480","OBJECT_NAME":"STARLINK-1362","LAUNCH_DATE":"2020-04-22","RA_OF_ASC_NODE":"272.0032","SEMIMAJOR_AXIS":"6925.292","MEAN_ANOMALY":"303.8425","DECAY_DATE":null,"MEAN_ELEMENT_THEORY":"SGP4","EPOCH":"2023-01-05T03:34:32.172672","SITE":"AFETR","MEAN_MOTION_DDOT":"0.0000000000000","TLE_LINE1":"1 45538U 20025H   23005.14898348  .00006073  00000-0  42605-3 0  9995","NORAD_CAT_ID":"45538","MEAN_MOTION_DOT":"0.00006073","TLE_LINE2":"2 45538  53.0536 272.0032 0001948  56.2750 303.8425 15.06418514150323","INCLINATION":"53.0536","ARG_OF_PERICENTER":"56.2750","FILE":"3732939","TIME_SYSTEM":"UTC","OBJECT_ID":"2020-025H","REV_AT_EPOCH":"15032"},{"INCLINATION":"53.0537","TLE_LINE2":"2 45540  53.0537 270.6222 0001636  64.5339 295.5819 15.06422650150365","REV_AT_EPOCH":"15036","OBJECT_ID":"2020-025K","TIME_SYSTEM":"UTC","ARG_OF_PERICENTER":"64.5339","FILE":"3732939","EPOCH":"2023-01-05T11:00:22.825728","MEAN_ELEMENT_THEORY":"SGP4","DECAY_DATE":null,"MEAN_ANOMALY":"295.5819","LAUNCH_DATE":"2020-04-22","SEMIMAJOR_AXIS":"6925.279","RA_OF_ASC_NODE":"270.6222","OBJECT_NAME":"STARLINK-1368","MEAN_MOTION_DOT":"0.00005346","NORAD_CAT_ID":"45540","TLE_LINE1":"1 45540U 20025K   23005.45859752  .00005346  00000-0  37727-3 0  9999","MEAN_MOTION_DDOT":"0.0000000000000","SITE":"AFETR","EPHEMERIS_TYPE":"0","OBJECT_TYPE":"PAYLOAD","COUNTRY_CODE":"US","MEAN_MOTION":"15.06422650","APOAPSIS":"548.277","ECCENTRICITY":"0.00016360","PERIOD":"95.591","PERIAPSIS":"546.011","CLASSIFICATION_TYPE":"U","RCS_SIZE":"LARGE","CENTER_NAME":"EARTH","REF_FRAME":"TEME","ELEMENT_SET_NO":"999","BSTAR":"0.00037727000000","GP_ID":"222258821"}];
